{"type": "FeatureCollection", "features": [{"type": "Feature", "geometry": {"type": "MultiLineString", "coordinates": [[[139.38, -33.89], [142.26, -34.103]], [[142.26, -34.103], [145.5, -34.98]], [[145.5, -34.98], [147.394, -35.2]]]}, "properties": {"name": "Project EnergyConnect Stage 2", "status": "Committed", "framework": "Committed ISP project", "project_type": "New transmission", "region": "NSW, SA, VIC", "proponents": "Transgrid", "voltage_kv": 330, "in_service": "Nov 2027", "capacity_note": "+650 MW NSW-SA and +100 MW VIC-SA (both directions). REZ limits: Riverland S2 +800 MW, South West NSW N5 +800 MW.", "description": "Second 330 kV circuit Bundey-Buronga; new 330 kV double circuit Buronga-Dinawan; new 500 kV double circuit Dinawan-Wagga Wagga (operated at 330 kV); new Dinawan 330 kV switching station; 4 x 200 MVA phase-shifting transformers and 2 x 330/220 kV transformers at Buronga; synchronous condensers at Buronga and Dinawan. Stage 1 (Robertstown-Bundey-Buronga, 150 MW) was completed in late 2024.", "source": "AEMO 2026 ISP, Appendix A5 (June 2026)", "location_note": "Approximate location for: Bundey, Dinawan. Route drawn substation to substation; not the surveyed alignment."}}, {"type": "Feature", "geometry": {"type": "MultiLineString", "coordinates": [[[148.135, -35.925], [148.11, -35.405]], [[147.43, -35.24], [148.11, -35.405]], [[148.11, -35.405], [150.051, -34.442]], [[147.43, -35.24], [147.394, -35.2]]]}, "properties": {"name": "HumeLink", "status": "Committed", "framework": "Committed ISP project", "project_type": "New transmission", "region": "NSW", "proponents": "Transgrid", "voltage_kv": 500, "in_service": "Dec 2027", "capacity_note": "+2,200 MW SNSW-CNSW (both directions). REZ: N6 + N7 +2,200 MW; South West NSW N5 +400 MW (limited by Wagga-Gugaa conductor).", "description": "New Gugaa 500/330 kV substation; 500 kV double circuit Gugaa-Wagga Wagga (operated at 330 kV initially); three new 500 kV circuits Maragle-Bannaby, Maragle-Gugaa and Gugaa-Bannaby, meeting at a Y-point near Wondalga; 3 x 1,500 MVA transformers at Maragle and 2 x 1,500 MVA at Gugaa. Connects Snowy 2.0 and Project EnergyConnect to Bannaby.", "source": "AEMO 2026 ISP, Appendix A5 (June 2026)", "location_note": "Approximate location for: Gugaa, Maragle, Wondalga. Route drawn substation to substation; not the surveyed alignment."}}, {"type": "Feature", "geometry": {"type": "MultiLineString", "coordinates": [[[150.911, -32.245], [151.076, -32.531], [151.5, -32.806]], [[150.99, -32.335], [151.076, -32.531]]]}, "properties": {"name": "Hunter-Central Coast REZ Network Infrastructure Project", "status": "Committed", "framework": "Committed (NSW EII Act)", "project_type": "New transmission", "region": "NSW", "proponents": "EnergyCo (Ausgrid network operator)", "voltage_kv": 132, "in_service": "Jul 2028", "capacity_note": "+600 MW modelled (1,000 MW intended network capacity; supports up to 1,800 MW of projects). Upstream limit from Muswellbrook 330 kV: 400 MW.", "description": "Ausgrid 132 kV sub-transmission upgrades in three portions: Upper Hunter protection upgrades for two-way flow; new Sandy Creek 132 kV switching station at Muswellbrook and a new Singleton-Kurri 132 kV link; new Antiene 132 kV switching station on the north-east bank of Lake Liddell with a new Antiene-Kurri line. Network normally open, supplying both CNSW and Sydney-Newcastle-Wollongong.", "source": "AEMO 2026 ISP, Appendix A5 (June 2026)", "location_note": "Approximate location for: Antiene. Route drawn substation to substation; not the surveyed alignment."}}, {"type": "Feature", "geometry": {"type": "MultiLineString", "coordinates": [[[150.03, -32.33], [149.58, -32.15], [148.83, -32.11]], [[149.953, -32.412], [150.03, -32.33]], [[150.946, -32.399], [150.975, -32.371]], [[150.026, -33.364], [150.081, -33.406]]]}, "properties": {"name": "Central-West Orana REZ Network Infrastructure Project", "status": "Committed", "framework": "Committed (NSW EII Act)", "project_type": "New transmission", "region": "NSW", "proponents": "EnergyCo (ACEREZ network operator)", "voltage_kv": 500, "in_service": "Dec 2028", "capacity_note": "+4,500 MW (initial stage of 6,000 MW intended). 7.7 GW of access rights awarded.", "description": "New Merotherie 500/330 kV substation (4 x 1,500 MVA); new Elong Elong 330 kV and Barigan Creek 500 kV switching stations; two 500 kV double circuits Barigan Creek-Merotherie; two 500 kV double circuits Merotherie-Elong Elong (operated at 330 kV); 7 x 250 MVAr synchronous condensers; extra 330 kV circuits Bayswater-Liddell and Mt Piper-Wallerawang. Construction began June 2025. Above 3 GW the REZ needs the Hunter Transmission Project (Sydney Ring North).", "source": "AEMO 2026 ISP, Appendix A5 (June 2026)", "location_note": "Approximate location for: Barigan Creek, Elong Elong, Merotherie. Route drawn substation to substation; not the surveyed alignment."}}, {"type": "Feature", "geometry": {"type": "LineString", "coordinates": [[144.747, -37.676], [144.7171, -37.6725], [144.6378, -37.6447], [144.397, -37.6197], [144.2543, -37.5715], [144.0931, -37.5284], [144.0199, -37.4516], [143.9865, -37.3769], [143.9161, -37.3531], [143.7427, -37.3405], [143.6771, -37.3257], [143.5888, -37.3217], [143.5196, -37.3033], [143.301, -37.1862], [143.0884, -37.0865], [143.0098, -37.0434], [142.985, -37.037]]}, "properties": {"name": "Western Renewables Link (WRL)", "status": "Anticipated", "framework": "Anticipated ISP project", "project_type": "New transmission", "region": "VIC", "proponents": "AusNet Transmission Group", "voltage_kv": 500, "in_service": "Nov 2029", "capacity_note": "+695 MW MEL-WNV (both directions); Central Highlands REZ +310 MW. Unlocks ~1,460 MW of renewables.", "description": "New 500 kV double circuit Sydenham-Bulgana; new 500 kV switchyard at Bulgana with 2 x 1,000 MVA 500/220 kV transformers; Ballarat-Moorabool No. 2 220 kV line cut into Elaine. Route follows the VicGrid published corridor.", "source": "AEMO 2026 ISP, Appendix A5 (June 2026)", "location_note": ""}}, {"type": "Feature", "geometry": {"type": "LineString", "coordinates": [[145.9763, -41.0728], [146.0428, -41.0159], [146.0421, -41.0108], [146.0787, -40.952], [146.0833, -40.9132], [146.0833, -39.0333], [146.0956, -38.8761], [146.0724, -38.8464], [146.086, -38.8018], [146.0826, -38.7872], [146.0538, -38.762], [146.0492, -38.7493], [146.0321, -38.742], [146.024, -38.7293], [146.0049, -38.7176], [145.9991, -38.7084], [146.0151, -38.692], [146.0171, -38.667], [146.0249, -38.6603], [146.0464, -38.5993], [146.0599, -38.5867], [146.0674, -38.5563], [146.08, -38.5459], [146.0849, -38.533], [146.1141, -38.5187], [146.1336, -38.4766], [146.142, -38.4752], [146.1497, -38.4346], [146.165, -38.4345], [146.1775, -38.4285], [146.1842, -38.4032], [146.1978, -38.3825], [146.2269, -38.3616], [146.2243, -38.3478], [146.2307, -38.3362], [146.2426, -38.3373], [146.2585, -38.33], [146.2627, -38.3186], [146.2885, -38.2957], [146.2994, -38.2997], [146.3511, -38.3008], [146.3628, -38.3091], [146.3809, -38.3088], [146.423, -38.2843]]}, "properties": {"name": "Project Marinus Stage 1 - Marinus Link HVDC", "status": "Anticipated", "framework": "Anticipated ISP project (FID 1 Aug 2025)", "project_type": "New transmission", "region": "TAS, VIC", "proponents": "Marinus Link Pty Ltd", "voltage_kv": null, "in_service": "Dec 2030", "capacity_note": "750 MW HVDC monopole each way (combined with Basslink: VIC->TAS 978 MW, TAS->VIC 1,344 MW).", "description": "A 750 MW monopole HVDC link from a converter station in the Burnie area (Heybridge) to a converter station in the Hazelwood area, with a 500 kV connection at Hazelwood. Route = Marinus Link EIS/EES assessed route (subsea to Waratah Bay, then underground).", "source": "AEMO 2026 ISP, Appendix A5 (June 2026)", "location_note": ""}}, {"type": "Feature", "geometry": {"type": "LineString", "coordinates": [[146.99, -41.787], [146.307, -41.336], [145.98, -41.08], [145.891, -41.077]]}, "properties": {"name": "Project Marinus Stage 1 - North West Transmission Developments", "status": "Anticipated", "framework": "Anticipated ISP project", "project_type": "New transmission", "region": "TAS", "proponents": "TasNetworks", "voltage_kv": 220, "in_service": "Dec 2030", "capacity_note": "Tasmanian 220 kV backbone for Marinus Link Stage 1.", "description": "New 220 kV switching station at Heybridge; new 220 kV double circuit Sheffield-Heybridge-Burnie; new 220 kV double circuit Palmerston-Sheffield replacing the existing single circuit; existing Sheffield-Burnie 220 kV line decommissioned.", "source": "AEMO 2026 ISP, Appendix A5 (June 2026)", "location_note": "Approximate location for: Heybridge. Route drawn substation to substation; not the surveyed alignment."}}, {"type": "Feature", "geometry": {"type": "LineString", "coordinates": [[146.83, -19.6], [144.2, -20.85]]}, "properties": {"name": "CopperString (Eastern Link)", "status": "Anticipated", "framework": "Anticipated (Qld Energy Roadmap)", "project_type": "New transmission", "region": "QLD", "proponents": "Queensland Investment Corporation / Powerlink", "voltage_kv": 330, "in_service": "2032", "capacity_note": "Hughenden Hub (Q2) +1,400 MW (to ~2,100 MW).", "description": "New NQ 330/275 kV substation south of Townsville (2 x 1,500 MVA), cut into Strathmore-Ross 275 kV; new 330 kV double circuit to a new Hughenden 330 kV substation via a mid-point substation. Only the Townsville-Hughenden section is modelled in the 2026 ISP; QIC is beginning work on the Western Link to Mount Isa.", "source": "AEMO 2026 ISP, Appendix A5 (June 2026)", "location_note": "Approximate location for: Hughenden, NQ 330. Route drawn substation to substation; not the surveyed alignment."}}, {"type": "Feature", "geometry": {"type": "MultiLineString", "coordinates": [[[150.946, -32.399], [151.05, -31.3], [151.45, -30.78], [151.65, -30.05]], [[151.45, -30.78], [151.95, -30.56]]]}, "properties": {"name": "New England REZ Network Infrastructure Project", "status": "Anticipated", "framework": "Anticipated (NSW EII Act)", "project_type": "New transmission", "region": "NSW", "proponents": "EnergyCo", "voltage_kv": 500, "in_service": "Jan 2034", "capacity_note": "+6,000 MW CNSW-NNSW (both directions); 8,000 MW intended REZ network capacity.", "description": "New 500 kV double circuits Bayswater (South)-Central A-Central B; new Central A and Central B 500/330 kV hubs (Central B cut into Tamworth-Armidale 330 kV, with 4 x 340 MVA phase-shifting transformers); new 330 kV North and East hubs; Central A-North 500 kV built, 330 kV operated; Central B-East 330 kV double circuits. Hub sites shown here are indicative - final sites follow EnergyCo procurement.", "source": "AEMO 2026 ISP, Appendix A5 (June 2026)", "location_note": "Approximate location for: NE Central A, NE Central B, NE East, NE North. Route drawn substation to substation; not the surveyed alignment."}}, {"type": "Feature", "geometry": {"type": "MultiLineString", "coordinates": [[[150.627, -24.343], [151.11, -23.9], [151.194, -23.857]], [[151.11, -23.9], [151.07, -23.823]]]}, "properties": {"name": "Gladstone Project", "status": "Actionable", "framework": "Actionable Queensland project", "project_type": "New transmission", "region": "QLD", "proponents": "Powerlink", "voltage_kv": 275, "in_service": "Mar 2029 (line), balance mid-2030", "capacity_note": "Raises thermal capacity into the Gladstone Grid as coal retires.", "description": "New Gladstone West 275 kV switching station; new high-capacity 275 kV double circuit Calvale-Calliope River (switched into Gladstone West); Larcom Creek double circuit switched into Gladstone West; third 275/132 kV transformer at Calliope River.", "source": "AEMO 2026 ISP, Appendix A5 (June 2026)", "location_note": "Approximate location for: Gladstone West. Route drawn substation to substation; not the surveyed alignment."}}, {"type": "Feature", "geometry": {"type": "Point", "coordinates": [144.846, -37.738]}, "properties": {"name": "Western Victoria Reinforcement", "status": "Actionable", "framework": "Actionable Victoria project (VTIF)", "project_type": "Augmentation", "region": "VIC", "proponents": "VicGrid", "voltage_kv": 220, "in_service": "Jun 2029", "capacity_note": "+800 MW MEL-WNV.", "description": "Geelong-Keilor 220 kV lines cut into Deer Park; Keilor 500/220 kV transformers replaced with 1,000 MVA units; Deer Park-Keilor circuits normally open; minor plant replacements on the Geelong-Keilor lines.", "source": "AEMO 2026 ISP, Appendix A5 (June 2026)", "location_note": "Route drawn substation to substation; not the surveyed alignment."}}, {"type": "Feature", "geometry": {"type": "LineString", "coordinates": [[150.946, -32.399], [150.95, -32.44], [151.36, -32.99], [151.515, -33.061]]}, "properties": {"name": "Sydney Ring North (Hunter Transmission Project)", "status": "Actionable", "framework": "Actionable NSW project (EII Act)", "project_type": "New transmission", "region": "NSW", "proponents": "EnergyCo", "voltage_kv": 500, "in_service": "Nov 2029", "capacity_note": "Up to +5,000 MW CNSW-SNW.", "description": "New 500 kV double circuit Bayswater South-Olney; new switching stations at Bayswater South and Olney (near Eraring); 500 kV ties to Bayswater and Eraring; 2 x 1,500 MVA 500/330 kV transformers at Eraring. In NSW Government independent assessment; construction expected from late 2026 if approved.", "source": "AEMO 2026 ISP, Appendix A5 (June 2026)", "location_note": "Approximate location for: Bayswater South, Olney. Route drawn substation to substation; not the surveyed alignment."}}, {"type": "Feature", "geometry": {"type": "LineString", "coordinates": [[150.32, -23.516], [149.404, -22.821]]}, "properties": {"name": "Central to North Queensland Reinforcement (Stage 1)", "status": "Actionable", "framework": "Actionable ISP project (new in 2026)", "project_type": "Augmentation", "region": "QLD", "proponents": "Powerlink", "voltage_kv": 275, "in_service": "Jul 2031", "capacity_note": "Raises NQ-CQ transfer (currently ~800 MW all seasons).", "description": "String the second circuit on the Stanwell-Broadsound 275 kV line. PADR due by 25 June 2028.", "source": "AEMO 2026 ISP, Appendix A5 (June 2026)", "location_note": "Route drawn substation to substation; not the surveyed alignment."}}, {"type": "Feature", "geometry": {"type": "LineString", "coordinates": [[150.051, -34.442], [150.76, -33.88], [150.828, -33.816]]}, "properties": {"name": "Sydney Ring South - 500 kV option", "status": "Actionable", "framework": "Actionable ISP project", "project_type": "New transmission", "region": "NSW", "proponents": "Transgrid", "voltage_kv": 500, "in_service": "Jul 2033", "capacity_note": "Raises CNSW-SNW southern supply into Sydney.", "description": "New South Creek switching station (later 500/330 kV with 3 x 1,500 MVA) cut into the Sydney 330 kV network; double circuit Bannaby-South Creek built to 500 kV on a new easement; rebuild/re-conductor ~7 km South Creek-Sydney West. Transgrid PADR prefers staging this with the power flow control option (PADR Option 6).", "source": "AEMO 2026 ISP, Appendix A5 (June 2026)", "location_note": "Approximate location for: South Creek. Route drawn substation to substation; not the surveyed alignment."}}, {"type": "Feature", "geometry": {"type": "Point", "coordinates": [150.051, -34.442]}, "properties": {"name": "Sydney Ring South - power flow control option", "status": "Actionable", "framework": "Actionable ISP project", "project_type": "Augmentation", "region": "NSW", "proponents": "Transgrid", "voltage_kv": 330, "in_service": "Jul 2030", "capacity_note": "Better flow sharing between the northern and southern supply paths into Sydney.", "description": "Power flow control devices on the 330 kV network supplying Sydney from the south. Site not yet published - shown at Bannaby. Requires the Hunter Transmission Project first.", "source": "AEMO 2026 ISP, Appendix A5 (June 2026)", "location_note": "Route drawn substation to substation; not the surveyed alignment."}}, {"type": "Feature", "geometry": {"type": "LineString", "coordinates": [[145.891, -41.077], [145.727, -41.27]]}, "properties": {"name": "Tasmania REZ Expansion (Burnie-Hampshire Hills)", "status": "Actionable", "framework": "Actionable ISP project (new in 2026)", "project_type": "New transmission", "region": "TAS", "proponents": "TasNetworks", "voltage_kv": 220, "in_service": "Jul 2030", "capacity_note": "North West Tasmania REZ (T2) +800 MW.", "description": "New double circuit Burnie-Hampshire Hills 220 kV line. Alternative option: Waddamana 220/110 kV transformer and Waddamana-Palmerston conversion to 220 kV for the Central Highlands REZ (+555 MW, Dec 2030). PADR due by 25 June 2028.", "source": "AEMO 2026 ISP, Appendix A5 (June 2026)", "location_note": "Route drawn substation to substation; not the surveyed alignment."}}, {"type": "Feature", "geometry": {"type": "Point", "coordinates": [148.11, -35.405]}, "properties": {"name": "Switching Station near Wondalga", "status": "Actionable", "framework": "Actionable ISP project (new in 2026)", "project_type": "Augmentation", "region": "NSW", "proponents": "Transgrid", "voltage_kv": 500, "in_service": "Apr 2031", "capacity_note": "Raises SNSW-CNSW transfer.", "description": "New 500 kV switching station at the HumeLink Y-point near Wondalga connecting the three 500 kV circuits. PADR due by 30 April 2028.", "source": "AEMO 2026 ISP, Appendix A5 (June 2026)", "location_note": "Approximate location for: Wondalga. Route drawn substation to substation; not the surveyed alignment."}}, {"type": "Feature", "geometry": {"type": "LineString", "coordinates": [[146.571, -38.255], [146.6433, -38.2676], [146.6908, -38.2491], [146.7389, -38.2368], [146.7688, -38.2508], [146.7737, -38.2642], [146.79, -38.2792], [146.8605, -38.278], [146.9094, -38.2716], [146.9953, -38.3324], [147.0141, -38.3623], [147.0272, -38.3737], [147.0529, -38.3774], [147.06, -38.388]]}, "properties": {"name": "Gippsland Offshore Wind Transmission Project", "status": "Actionable", "framework": "Actionable Victoria project (VTIF)", "project_type": "New transmission", "region": "VIC", "proponents": "VicGrid", "voltage_kv": 500, "in_service": "Jul 2031 (Stage 1); Jul 2033; Jul 2038", "capacity_note": "Connects Gippsland offshore wind (VIC targets 2 GW by 2032, 4 GW by 2035, 9 GW by 2040).", "description": "Stage 1: 500 kV double-circuit radial line Loy Yang-Giffard. Stage 2 Phase 1: second 500 kV double circuit from a new terminal station near Woodside. Stage 2 Phase 2: Giffard-Woodside tie-in loop. Route follows the VicGrid draft preferred route.", "source": "AEMO 2026 ISP, Appendix A5 (June 2026)", "location_note": ""}}, {"type": "Feature", "geometry": {"type": "LineString", "coordinates": [[142.985, -37.037], [143.0129, -37.0059], [142.9417, -36.885], [142.9186, -36.7568], [142.954, -36.6889], [143.0213, -36.6437], [143.0724, -36.578], [143.1114, -36.5123], [143.1346, -36.4352], [143.1674, -36.3612], [143.2052, -36.297], [143.2936, -36.2312], [143.334, -36.1801], [143.4411, -36.0755], [143.492, -36.0124], [143.6814, -35.8605], [143.7806, -35.8251], [143.9421, -35.8605], [144.0021, -35.7989], [143.9916, -35.6962], [143.9075, -35.5387], [144.02, -35.48], [145.5, -34.98]]}, "properties": {"name": "VNI West (Victoria - NSW Interconnector West)", "status": "Actionable", "framework": "Actionable ISP project", "project_type": "New transmission", "region": "VIC, NSW", "proponents": "Transgrid / VicGrid (TCV)", "voltage_kv": 500, "in_service": "Nov 2031", "capacity_note": "Raises VIC-NSW transfer; via Kerang (RIT-T option 5A).", "description": "New 500 kV double circuit from near Bulgana to a new Tragowel terminal station (near Kerang, 2 x 1,000 MVA 500/220 kV) and on to Dinawan, with series compensation and dynamic reactive support. Connects to WRL at Bulgana. Victorian section follows the VicGrid corridor; NSW section drawn straight to Dinawan.", "source": "AEMO 2026 ISP, Appendix A5 (June 2026)", "location_note": "Route: VicGrid corridor in Victoria (centreline); straight line in NSW. Approximate location for: Dinawan, Murray border. Route drawn substation to substation; not the surveyed alignment."}}, {"type": "Feature", "geometry": {"type": "LineString", "coordinates": [[145.5, -34.98], [147.394, -35.2], [147.43, -35.24]]}, "properties": {"name": "VNI West - South West NSW REZ component", "status": "Actionable", "framework": "Actionable NSW project (EII Act)", "project_type": "Augmentation", "region": "NSW", "proponents": "Transgrid / EnergyCo", "voltage_kv": 500, "in_service": "Aug 2029 (proponent)", "capacity_note": "South West NSW REZ: third Dinawan transformer adds 1,800 MW.", "description": "Upgrade the Dinawan-Wagga Wagga-Gugaa double circuit from 330 kV to 500 kV; Dinawan 500 kV switchyard with three 500/330 kV 1,500 MVA transformers. The ISP finds it more efficient to deliver this with VNI West as one project.", "source": "AEMO 2026 ISP, Appendix A5 (June 2026)", "location_note": "Approximate location for: Dinawan, Gugaa. Route drawn substation to substation; not the surveyed alignment."}}, {"type": "Feature", "geometry": {"type": "MultiLineString", "coordinates": [[[152.786, -27.541], [152.815, -27.545], [152.97, -27.324]], [[152.786, -27.541], [152.999, -27.553]]]}, "properties": {"name": "Brisbane Area 275 kV Reinforcement", "status": "Actionable", "framework": "Actionable ISP project (new in 2026)", "project_type": "New transmission", "region": "QLD", "proponents": "Powerlink", "voltage_kv": 275, "in_service": "Jun 2032", "capacity_note": "Raises SQ-CQ transfer capability.", "description": "New high-capacity 275 kV double circuit between Blackwall and a new Karana Downs substation; existing Blackwall, South Pine and Rocklea 275 kV circuits rearranged. Replaces Queensland SuperGrid South, which is no longer in the plan.", "source": "AEMO 2026 ISP, Appendix A5 (June 2026)", "location_note": "Approximate location for: Karana Downs. Route drawn substation to substation; not the surveyed alignment."}}, {"type": "Feature", "geometry": {"type": "LineString", "coordinates": [[149.58, -32.15], [148.83, -32.11]]}, "properties": {"name": "Central-West Orana REZ Expansion", "status": "Actionable", "framework": "Actionable NSW project (EII Act)", "project_type": "New transmission", "region": "NSW", "proponents": "EnergyCo", "voltage_kv": 500, "in_service": "Mar 2033", "capacity_note": "Takes CWO towards its 6,000 MW intended capacity.", "description": "New Merotherie-B 500/330 kV substation (3 x 1,500 MVA) at least 2 km from Merotherie; 500 kV double circuit Merotherie-A to Merotherie-B; Elong Elong expanded to 500/330 kV (3 x 1,500 MVA).", "source": "AEMO 2026 ISP, Appendix A5 (June 2026)", "location_note": "Approximate location for: Elong Elong, Merotherie. Route drawn substation to substation; not the surveyed alignment."}}, {"type": "Feature", "geometry": {"type": "MultiLineString", "coordinates": [[[145.979, -41.0743], [145.993, -41.0669], [146.0219, -41.0378], [146.0575, -41.0174], [146.0822, -40.9754], [146.0828, -40.9661], [146.0895, -40.9617], [146.1071, -40.8603], [146.1064, -39.0339], [146.091, -38.9491], [146.0961, -38.8711], [146.0746, -38.8488], [146.073, -38.8417], [146.0865, -38.7955], [146.0826, -38.7872], [146.0538, -38.762], [146.0492, -38.7493], [146.0321, -38.742], [146.024, -38.7293], [146.0049, -38.7176], [145.9991, -38.7084], [146.0151, -38.692], [146.0171, -38.667], [146.0249, -38.6603], [146.0464, -38.5993], [146.0599, -38.5867], [146.0674, -38.5563], [146.08, -38.5459], [146.0849, -38.533], [146.1141, -38.5187], [146.1336, -38.4766], [146.142, -38.4752], [146.1497, -38.4346], [146.165, -38.4345], [146.1775, -38.4285], [146.1842, -38.4032], [146.1978, -38.3825], [146.2269, -38.3616], [146.2243, -38.3478], [146.2307, -38.3362], [146.2426, -38.3373], [146.2585, -38.33], [146.2627, -38.3186], [146.2885, -38.2957], [146.2994, -38.2997], [146.3511, -38.3008], [146.3628, -38.3091], [146.3809, -38.3088], [146.423, -38.2843]], [[146.307, -41.336], [146.17, -41.385], [145.727, -41.27]]]}, "properties": {"name": "Project Marinus Stage 2", "status": "Actionable", "framework": "Actionable ISP project", "project_type": "New transmission", "region": "TAS, VIC", "proponents": "Marinus Link Pty Ltd / TasNetworks", "voltage_kv": null, "in_service": "Dec 2034", "capacity_note": "Second 750 MW HVDC (combined: VIC->TAS 1,728 MW, TAS->VIC 2,094 MW).", "description": "A second 750 MW monopole HVDC link Burnie area-Hazelwood area (ML2 route); new Staverton 220 kV switching station; new 220 kV double circuit Staverton-Hampshire; Sheffield-Mersey Forth lines cut in at Staverton. Requires Stage 1 and the Tasmania REZ Expansion.", "source": "AEMO 2026 ISP, Appendix A5 (June 2026)", "location_note": "Route: Marinus Link EIS/EES assessed route (ML2) for the HVDC. Approximate location for: Staverton. Route drawn substation to substation; not the surveyed alignment."}}, {"type": "Feature", "geometry": {"type": "Point", "coordinates": [145.227, -37.929]}, "properties": {"name": "Eastern Victoria Reinforcement", "status": "Future", "framework": "Future ISP project", "project_type": "Augmentation", "region": "VIC", "proponents": "VicGrid", "voltage_kv": 500, "in_service": "2033-34 (Step Change)", "capacity_note": "Raises SEV-MEL transfer from Gippsland.", "description": "Third 1,000 MVA 500/220 kV transformer at Rowville; later options add series impedance on the Hazelwood transformers or a second Cranbourne transformer.", "source": "AEMO 2026 ISP, Appendix A5 (June 2026)", "location_note": "Route drawn substation to substation; not the surveyed alignment."}}, {"type": "Feature", "geometry": {"type": "LineString", "coordinates": [[151.65, -30.05], [151.6, -28.98], [150.843, -27.921], [150.9, -27.114]]}, "properties": {"name": "QNI Connect", "status": "Future", "framework": "Future ISP project (was actionable in 2024)", "project_type": "New transmission", "region": "NSW, QLD", "proponents": "Transgrid / Powerlink", "voltage_kv": 330, "in_service": "2041-42 (Step Change)", "capacity_note": "+1,260 MW NSW->QLD, +1,700 MW QLD->NSW.", "description": "New 330 kV double circuit from the New England North hub to Dumaresq, Bulli Creek and Braemar, with 330/275 kV transformers at Braemar. No longer actionable; proponents have stopped the PADR.", "source": "AEMO 2026 ISP, Appendix A5 (June 2026)", "location_note": "Approximate location for: Dumaresq, NE North. Route drawn substation to substation; not the surveyed alignment."}}, {"type": "Feature", "geometry": {"type": "Point", "coordinates": [151.97, -27.62]}, "properties": {"name": "South West to South East Queensland Reinforcement", "status": "Future", "framework": "Future ISP project", "project_type": "Augmentation", "region": "QLD", "proponents": "Powerlink", "voltage_kv": 330, "in_service": "2041-42 (Step Change)", "capacity_note": "South West Queensland REZ export.", "description": "Replace the 330/275 kV 1,300 MVA transformer at Middle Ridge with a 1,500 MVA unit, plus a generation run-back scheme in south-west Queensland.", "source": "AEMO 2026 ISP, Appendix A5 (June 2026)", "location_note": "Approximate location for: Middle Ridge. Route drawn substation to substation; not the surveyed alignment."}}, {"type": "Feature", "geometry": {"type": "LineString", "coordinates": [[150.487, -23.536], [149.404, -22.821], [148.683, -21.632]]}, "properties": {"name": "Central to North Queensland Reinforcement (Stage 2)", "status": "Future", "framework": "Future ISP project", "project_type": "New transmission", "region": "QLD", "proponents": "Powerlink", "voltage_kv": 275, "in_service": "2042-43 (Step Change)", "capacity_note": "Further NQ-CQ transfer.", "description": "New high-capacity 275 kV double circuits Bouldercombe-Broadsound and Broadsound-Nebo, replacing the existing single circuits.", "source": "AEMO 2026 ISP, Appendix A5 (June 2026)", "location_note": "Route drawn substation to substation; not the surveyed alignment."}}, {"type": "Feature", "geometry": {"type": "LineString", "coordinates": [[139.38, -33.89], [138.582, -34.848]]}, "properties": {"name": "Northern Transmission Project (NTx)", "status": "Future", "framework": "Future ISP project (was actionable in 2024)", "project_type": "New transmission", "region": "SA", "proponents": "ElectraNet", "voltage_kv": 275, "in_service": "2041-42 (Accelerated Transition only)", "capacity_note": "Mid-North SA to Adelaide.", "description": "New 275 kV double circuit Bundey to a new substation near Bolivar/Dry Creek tied into the metropolitan 275 kV network; 132 kV reconfiguration around Templers West. ElectraNet now advises 2031-32 earliest.", "source": "AEMO 2026 ISP, Appendix A5 (June 2026)", "location_note": "Approximate location for: Bundey. Route drawn substation to substation; not the surveyed alignment."}}, {"type": "Feature", "geometry": {"type": "LineString", "coordinates": [[146.746, -42.126], [146.99, -41.787]]}, "properties": {"name": "Second Tasmania REZ Expansion (Waddamana-Palmerston)", "status": "Future", "framework": "Future ISP project (was actionable in 2024)", "project_type": "Augmentation", "region": "TAS", "proponents": "TasNetworks", "voltage_kv": 220, "in_service": "2034-35 (Accelerated Transition only)", "capacity_note": "Central Highlands REZ (T3).", "description": "Convert the Waddamana-Palmerston 110 kV line to 220 kV operation and install a 220/110 kV transformer at Waddamana.", "source": "AEMO 2026 ISP, Appendix A5 (June 2026)", "location_note": "Route drawn substation to substation; not the surveyed alignment."}}, {"type": "Feature", "geometry": {"type": "MultiLineString", "coordinates": [[[144.297, -38.037], [144.73, -37.83], [144.747, -37.676]], [[144.73, -37.83], [144.77, -37.77]]]}, "properties": {"name": "South West Victoria Expansion", "status": "Future", "framework": "Future ISP project", "project_type": "New transmission", "region": "VIC", "proponents": "VicGrid", "voltage_kv": 500, "in_service": "2045-46 (Step Change)", "capacity_note": "Raises WNV-MEL transfer.", "description": "New 500 kV double circuit Moorabool-Truganina and single circuit Truganina-Sydenham; new Truganina 500/220 kV substation; two 220 kV double circuits Truganina-Deer Park; rebuild the Deer Park-Keilor 220 kV lines.", "source": "AEMO 2026 ISP, Appendix A5 (June 2026)", "location_note": "Approximate location for: Deer Park, Truganina. Route drawn substation to substation; not the surveyed alignment."}}]}